start=new Date('2022-01-23T00:00:00.000Z').valueOf();
sats=[{"CENTER_NAME":"EARTH","APOAPSIS":"350.424","OBJECT_ID":"2021-125AH","CLASSIFICATION_TYPE":"U","REV_AT_EPOCH":"579","MEAN_MOTION":"15.73281954","COUNTRY_CODE":"US","RA_OF_ASC_NODE":"190.4246","MEAN_MOTION_DOT":"0.00038178","ELEMENT_SET_NO":"999","SITE":"AFWTR","FILE":"3280300","EPHEMERIS_TYPE":"0","OBJECT_NAME":"STARLINK-3272","PERIOD":"91.528","TLE_LINE2":"2 50187  53.2181 190.4246 0001334  58.9990 162.7093 15.73281954  5794","NORAD_CAT_ID":"50187","REF_FRAME":"TEME","RCS_SIZE":"LARGE","LAUNCH_DATE":"2021-12-18","MEAN_ANOMALY":"162.7093","OBJECT_TYPE":"PAYLOAD","INCLINATION":"53.2181","EPOCH":"2022-01-22T22:00:00.999936","ECCENTRICITY":"0.00013340","SEMIMAJOR_AXIS":"6727.662","ARG_OF_PERICENTER":"58.9990","GP_ID":"194403539","TIME_SYSTEM":"UTC","TLE_LINE1":"1 50187U 21125AH  22022.91667824  .00038178  00000-0  27424-3 0  9992","DECAY_DATE":null,"MEAN_MOTION_DDOT":"0.0000000000000","BSTAR":"0.00027424000000","PERIAPSIS":"348.629","MEAN_ELEMENT_THEORY":"SGP4"},{"PERIOD":"91.529","OBJECT_NAME":"STARLINK-3268","EPHEMERIS_TYPE":"0","FILE":"3280300","SITE":"AFWTR","ELEMENT_SET_NO":"999","MEAN_MOTION_DOT":"0.00056281","RA_OF_ASC_NODE":"190.4130","COUNTRY_CODE":"US","MEAN_MOTION":"15.73264374","REV_AT_EPOCH":"840","CLASSIFICATION_TYPE":"U","APOAPSIS":"350.500","OBJECT_ID":"2021-125AL","CENTER_NAME":"EARTH","MEAN_ELEMENT_THEORY":"SGP4","PERIAPSIS":"348.653","BSTAR":"0.00040163000000","DECAY_DATE":null,"MEAN_MOTION_DDOT":"0.0000000000000","TLE_LINE1":"1 50190U 21125AL  22022.91667824  .00056281  00000-0  40163-3 0  9996","TIME_SYSTEM":"UTC","GP_ID":"194403693","ARG_OF_PERICENTER":"43.8253","SEMIMAJOR_AXIS":"6727.712","ECCENTRICITY":"0.00013730","EPOCH":"2022-01-22T22:00:00.999936","INCLINATION":"53.2163","OBJECT_TYPE":"PAYLOAD","MEAN_ANOMALY":"180.6780","LAUNCH_DATE":"2021-12-18","RCS_SIZE":"LARGE","REF_FRAME":"TEME","NORAD_CAT_ID":"50190","TLE_LINE2":"2 50190  53.2163 190.4130 0001373  43.8253 180.6780 15.73264374  8408"},{"SEMIMAJOR_AXIS":"6758.590","ARG_OF_PERICENTER":"61.3263","TIME_SYSTEM":"UTC","GP_ID":"194403529","DECAY_DATE":null,"MEAN_MOTION_DDOT":"0.0000000000000","BSTAR":"-0.00780230000000","TLE_LINE1":"1 50191U 21125AM  22022.91667824 -.00653404  00000-0 -78023-2 0  9994","PERIAPSIS":"379.669","MEAN_ELEMENT_THEORY":"SGP4","RCS_SIZE":"LARGE","TLE_LINE2":"2 50191  53.2173 190.6781 0001162  61.3263  10.7824 15.62494985  5787","NORAD_CAT_ID":"50191","REF_FRAME":"TEME","MEAN_ANOMALY":"10.7824","OBJECT_TYPE":"PAYLOAD","INCLINATION":"53.2173","EPOCH":"2022-01-22T22:00:00.999936","LAUNCH_DATE":"2021-12-18","ECCENTRICITY":"0.00011620","FILE":"3280300","ELEMENT_SET_NO":"999","SITE":"AFWTR","EPHEMERIS_TYPE":"0","OBJECT_NAME":"STARLINK-3273","PERIOD":"92.160","APOAPSIS":"381.240","OBJECT_ID":"2021-125AM","CLASSIFICATION_TYPE":"U","CENTER_NAME":"EARTH","REV_AT_EPOCH":"578","MEAN_MOTION":"15.62494985","COUNTRY_CODE":"US","MEAN_MOTION_DOT":"-0.00653404","RA_OF_ASC_NODE":"190.6781"},{"PERIOD":"91.532","OBJECT_NAME":"STARLINK-3259","EPHEMERIS_TYPE":"0","ELEMENT_SET_NO":"999","SITE":"AFWTR","FILE":"3280300","RA_OF_ASC_NODE":"190.4102","MEAN_MOTION_DOT":"0.00065057","MEAN_MOTION":"15.73212932","COUNTRY_CODE":"US","REV_AT_EPOCH":"579","CENTER_NAME":"EARTH","OBJECT_ID":"2021-125AN","APOAPSIS":"350.743","CLASSIFICATION_TYPE":"U","PERIAPSIS":"348.703","MEAN_ELEMENT_THEORY":"SGP4","TLE_LINE1":"1 50192U 21125AN  22022.91667824  .00065057  00000-0  46411-3 0  9991","MEAN_MOTION_DDOT":"0.0000000000000","DECAY_DATE":null,"BSTAR":"0.00046411000000","GP_ID":"194403531","TIME_SYSTEM":"UTC","SEMIMAJOR_AXIS":"6727.858","ARG_OF_PERICENTER":"55.5567","ECCENTRICITY":"0.00015160","LAUNCH_DATE":"2021-12-18","OBJECT_TYPE":"PAYLOAD","MEAN_ANOMALY":"170.0953","INCLINATION":"53.2162","EPOCH":"2022-01-22T22:00:00.999936","TLE_LINE2":"2 50192  53.2162 190.4102 0001516  55.5567 170.0953 15.73212932  5792","NORAD_CAT_ID":"50192","REF_FRAME":"TEME","RCS_SIZE":"LARGE"},{"REV_AT_EPOCH":"840","CLASSIFICATION_TYPE":"U","OBJECT_ID":"2021-125AP","APOAPSIS":"350.619","CENTER_NAME":"EARTH","MEAN_MOTION_DOT":"0.00066045","RA_OF_ASC_NODE":"190.4157","COUNTRY_CODE":"US","MEAN_MOTION":"15.73213395","EPHEMERIS_TYPE":"0","FILE":"3280300","SITE":"AFWTR","ELEMENT_SET_NO":"999","PERIOD":"91.532","OBJECT_NAME":"STARLINK-3261","INCLINATION":"53.2160","EPOCH":"2022-01-22T22:00:00.999936","MEAN_ANOMALY":"160.9632","OBJECT_TYPE":"PAYLOAD","LAUNCH_DATE":"2021-12-18","RCS_SIZE":"LARGE","REF_FRAME":"TEME","NORAD_CAT_ID":"50193","TLE_LINE2":"2 50193  53.2160 190.4157 0001333  61.8654 160.9632 15.73213395  8402","ECCENTRICITY":"0.00013330","TIME_SYSTEM":"UTC","GP_ID":"194403699","ARG_OF_PERICENTER":"61.8654","SEMIMAJOR_AXIS":"6727.857","MEAN_ELEMENT_THEORY":"SGP4","PERIAPSIS":"348.825","BSTAR":"0.00047103000000","MEAN_MOTION_DDOT":"0.0000000000000","DECAY_DATE":null,"TLE_LINE1":"1 50193U 21125AP  22022.91667824  .00066045  00000-0  47103-3 0  9999"},{"REV_AT_EPOCH":"840","CENTER_NAME":"EARTH","CLASSIFICATION_TYPE":"U","OBJECT_ID":"2021-125AR","APOAPSIS":"350.506","RA_OF_ASC_NODE":"190.4181","MEAN_MOTION_DOT":"0.00053286","COUNTRY_CODE":"US","MEAN_MOTION":"15.73209223","EPHEMERIS_TYPE":"0","SITE":"AFWTR","ELEMENT_SET_NO":"999","FILE":"3280300","PERIOD":"91.533","OBJECT_NAME":"STARLINK-3266","LAUNCH_DATE":"2021-12-18","EPOCH":"2022-01-22T22:00:00.999936","INCLINATION":"53.2174","MEAN_ANOMALY":"163.7112","OBJECT_TYPE":"PAYLOAD","REF_FRAME":"TEME","NORAD_CAT_ID":"50195","TLE_LINE2":"2 50195  53.2174 190.4181 0001148  60.0721 163.7112 15.73209223  8405","RCS_SIZE":"LARGE","ECCENTRICITY":"0.00011480","GP_ID":"194403534","TIME_SYSTEM":"UTC","ARG_OF_PERICENTER":"60.0721","SEMIMAJOR_AXIS":"6727.869","MEAN_ELEMENT_THEORY":"SGP4","PERIAPSIS":"348.962","TLE_LINE1":"1 50195U 21125AR  22022.91667824  .00053286  00000-0  38153-3 0  9999","BSTAR":"0.00038153000000","MEAN_MOTION_DDOT":"0.0000000000000","DECAY_DATE":null},{"CENTER_NAME":"EARTH","APOAPSIS":"350.755","OBJECT_ID":"2021-125AY","CLASSIFICATION_TYPE":"U","REV_AT_EPOCH":"842","MEAN_MOTION":"15.73224994","COUNTRY_CODE":"US","RA_OF_ASC_NODE":"189.0013","MEAN_MOTION_DOT":"0.00038116","ELEMENT_SET_NO":"999","SITE":"AFWTR","FILE":"3280300","EPHEMERIS_TYPE":"0","OBJECT_NAME":"STARLINK-3256","PERIOD":"91.532","TLE_LINE2":"2 50202  53.2175 189.0013 0001585  44.6719 147.1632 15.73224994  8420","NORAD_CAT_ID":"50202","REF_FRAME":"TEME","RCS_SIZE":"LARGE","LAUNCH_DATE":"2021-12-18","MEAN_ANOMALY":"147.1632","OBJECT_TYPE":"PAYLOAD","EPOCH":"2022-01-22T22:00:00.999936","INCLINATION":"53.2175","ECCENTRICITY":"0.00015850","SEMIMAJOR_AXIS":"6727.824","ARG_OF_PERICENTER":"44.6719","GP_ID":"194403698","TIME_SYSTEM":"UTC","TLE_LINE1":"1 50202U 21125AY  22022.91667824  .00038116  00000-0  27447-3 0  9997","MEAN_MOTION_DDOT":"0.0000000000000","DECAY_DATE":null,"BSTAR":"0.00027447000000","MEAN_ELEMENT_THEORY":"SGP4","PERIAPSIS":"348.623"},{"OBJECT_NAME":"STARLINK-3257","PERIOD":"91.532","FILE":"3280300","ELEMENT_SET_NO":"999","SITE":"AFWTR","EPHEMERIS_TYPE":"0","MEAN_MOTION":"15.73219180","COUNTRY_CODE":"US","MEAN_MOTION_DOT":"0.00053414","RA_OF_ASC_NODE":"190.4015","APOAPSIS":"350.627","OBJECT_ID":"2021-125AZ","CLASSIFICATION_TYPE":"U","CENTER_NAME":"EARTH","REV_AT_EPOCH":"579","MEAN_MOTION_DDOT":"0.0000000000000","DECAY_DATE":null,"BSTAR":"0.00038226000000","TLE_LINE1":"1 50203U 21125AZ  22022.91667824  .00053414  00000-0  38226-3 0  9993","MEAN_ELEMENT_THEORY":"SGP4","PERIAPSIS":"348.784","SEMIMAJOR_AXIS":"6727.840","ARG_OF_PERICENTER":"59.8331","TIME_SYSTEM":"UTC","GP_ID":"194403537","ECCENTRICITY":"0.00013700","RCS_SIZE":"LARGE","TLE_LINE2":"2 50203  53.2164 190.4015 0001370  59.8331 170.4988 15.73219180  5798","NORAD_CAT_ID":"50203","REF_FRAME":"TEME","MEAN_ANOMALY":"170.4988","OBJECT_TYPE":"PAYLOAD","INCLINATION":"53.2164","EPOCH":"2022-01-22T22:00:00.999936","LAUNCH_DATE":"2021-12-18"},{"SEMIMAJOR_AXIS":"6727.856","ARG_OF_PERICENTER":"45.9900","GP_ID":"194403696","TIME_SYSTEM":"UTC","TLE_LINE1":"1 50205U 21125BB  22022.91667824 -.00015570  00000-0 -10666-3 0  9996","DECAY_DATE":null,"MEAN_MOTION_DDOT":"0.0000000000000","BSTAR":"-0.00010666000000","MEAN_ELEMENT_THEORY":"SGP4","PERIAPSIS":"348.760","TLE_LINE2":"2 50205  53.2173 186.7360 0001429  45.9900 153.2519 15.73213764  8451","REF_FRAME":"TEME","NORAD_CAT_ID":"50205","RCS_SIZE":"LARGE","LAUNCH_DATE":"2021-12-18","MEAN_ANOMALY":"153.2519","OBJECT_TYPE":"PAYLOAD","INCLINATION":"53.2173","EPOCH":"2022-01-22T22:00:00.999936","ECCENTRICITY":"0.00014290","ELEMENT_SET_NO":"999","SITE":"AFWTR","FILE":"3280300","EPHEMERIS_TYPE":"0","OBJECT_NAME":"STARLINK-3260","PERIOD":"91.532","CENTER_NAME":"EARTH","APOAPSIS":"350.682","OBJECT_ID":"2021-125BB","CLASSIFICATION_TYPE":"U","REV_AT_EPOCH":"845","MEAN_MOTION":"15.73213764","COUNTRY_CODE":"US","RA_OF_ASC_NODE":"186.7360","MEAN_MOTION_DOT":"-0.00015570"},{"TIME_SYSTEM":"UTC","GP_ID":"194403757","ARG_OF_PERICENTER":"92.2765","SEMIMAJOR_AXIS":"6722.418","PERIAPSIS":"343.582","MEAN_ELEMENT_THEORY":"SGP4","BSTAR":"-0.00592290000000","DECAY_DATE":null,"MEAN_MOTION_DDOT":"0.0000000000000","TLE_LINE1":"1 50814U 22001M   22022.91667824 -.00820899  00000-0 -59229-2 0  9991","INCLINATION":"53.2175","EPOCH":"2022-01-22T22:00:00.999936","OBJECT_TYPE":"PAYLOAD","MEAN_ANOMALY":"214.2693","LAUNCH_DATE":"2022-01-06","RCS_SIZE":"LARGE","REF_FRAME":"TEME","NORAD_CAT_ID":"50814","TLE_LINE2":"2 50814  53.2175 119.7781 0001043  92.2765 214.2693 15.75123058  3823","ECCENTRICITY":"0.00010430","EPHEMERIS_TYPE":"0","FILE":"3280308","SITE":"AFETR","ELEMENT_SET_NO":"999","PERIOD":"91.421","OBJECT_NAME":"STARLINK-3324","REV_AT_EPOCH":"382","CLASSIFICATION_TYPE":"U","APOAPSIS":"344.984","OBJECT_ID":"2022-001M","CENTER_NAME":"EARTH","MEAN_MOTION_DOT":"-0.00820899","RA_OF_ASC_NODE":"119.7781","COUNTRY_CODE":"US","MEAN_MOTION":"15.75123058"}];
